{"type": "FeatureCollection", "features": [ {"type": "Feature", "properties": {"norad_id": 38755, "name": "SPOT 6", "group": "resource", "lat": -70.51139964596324, "lon": 72.45625550214442, "alt_km": 705.728160213549, "timestamp": "2025-12-09T16:56:36.237015+00:00", "meta": {"OBJECT_NAME": "SPOT 6", "OBJECT_ID": "2012-047A", "EPOCH": "2025-12-09T12:20:06.085248", "MEAN_MOTION": 14.58599459, "ECCENTRICITY": 0.0001087, "INCLINATION": 98.1572, "RA_OF_ASC_NODE": 48.3577, "ARG_OF_PERICENTER": 95.6644, "MEAN_ANOMALY": 264.4679, "EPHEMERIS_TYPE": 0, "CLASSIFICATION_TYPE": "U", "NORAD_CAT_ID": 38755, "ELEMENT_SET_NO": 999, "REV_AT_EPOCH": 70540, "BSTAR": 0.00020553, "MEAN_MOTION_DOT": 9.11e-06, "MEAN_MOTION_DDOT": 0}, "tle": {"line1": "1 38755U 12047A   25343.51395932  .00000911  00000+0  20553-3 0  9994", "line2": "2 38755  98.1572  48.3577 0001087  95.6644 264.4679 14.58599459705409"}}, "geometry": {"type": "Point", "coordinates": [72.45625550214442, -70.51139964596324]}}, {"type": "Feature", "properties": {"norad_id": 39019, "name": "PLEIADES 1B", "group": "resource", "lat": -6.964722894481964, "lon": -124.60110321931255, "alt_km": 701.9506328215757, "timestamp": "2025-12-09T16:56:36.237025+00:00", "meta": {"OBJECT_NAME": "PLEIADES 1B", "OBJECT_ID": "2012-068A", "EPOCH": "2025-12-09T11:08:59.560800", "MEAN_MOTION": 14.58548484, "ECCENTRICITY": 0.0001242, "INCLINATION": 98.1795, "RA_OF_ASC_NODE": 56.1681, "ARG_OF_PERICENTER": 81.6845, "MEAN_ANOMALY": 278.4495, "EPHEMERIS_TYPE": 0, "CLASSIFICATION_TYPE": "U", "NORAD_CAT_ID": 39019, "ELEMENT_SET_NO": 999, "REV_AT_EPOCH": 69319, "BSTAR": 0.00018459, "MEAN_MOTION_DOT": 8.13e-06, "MEAN_MOTION_DDOT": 0}, "tle": {"line1": "1 39019U 12068A   25343.46457825  .00000813  00000+0  18459-3 0  9998", "line2": "2 39019  98.1795  56.1681 0001242  81.6845 278.4495 14.58548484693199"}}, "geometry": {"type": "Point", "coordinates": [-124.60110321931255, -6.964722894481964]}}, {"type": "Feature", "properties": {"norad_id": 39030, "name": "GOKTURK 2", "group": "resource", "lat": -39.5069560822632, "lon": -0.8876152030414619, "alt_km": 651.0650715433794, "timestamp": "2025-12-09T16:56:36.237036+00:00", "meta": {"OBJECT_NAME": "GOKTURK 2", "OBJECT_ID": "2012-073A", "EPOCH": "2025-12-09T12:41:39.859584", "MEAN_MOTION": 14.75284457, "ECCENTRICITY": 9.15e-05, "INCLINATION": 97.689, "RA_OF_ASC_NODE": 185.3399, "ARG_OF_PERICENTER": 102.3096, "MEAN_ANOMALY": 257.8216, "EPHEMERIS_TYPE": 0, "CLASSIFICATION_TYPE": "U", "NORAD_CAT_ID": 39030, "ELEMENT_SET_NO": 999, "REV_AT_EPOCH": 69654, "BSTAR": 0.00016981, "MEAN_MOTION_DOT": 1.103e-05, "MEAN_MOTION_DDOT": 0}, "tle": {"line1": "1 39030U 12073A   25343.52893356  .00001103  00000+0  16981-3 0  9998", "line2": "2 39030  97.6890 185.3399 0000915 102.3096 257.8216 14.75284457696548"}}, "geometry": {"type": "Point", "coordinates": [-0.8876152030414619, -39.5069560822632]}}, {"type": "Feature", "properties": {"norad_id": 39084, "name": "LANDSAT 8", "group": "resource", "lat": 12.363418404942172, "lon": 50.01113725187073, "alt_km": 703.5387580668312, "timestamp": "2025-12-09T16:56:36.237047+00:00", "meta": {"OBJECT_NAME": "LANDSAT 8", "OBJECT_ID": "2013-008A", "EPOCH": "2025-12-09T11:56:31.262784", "MEAN_MOTION": 14.57109596, "ECCENTRICITY": 0.0001118, "INCLINATION": 98.2076, "RA_OF_ASC_NODE": 51.6188, "ARG_OF_PERICENTER": 87.1914, "MEAN_ANOMALY": 272.9412, "EPHEMERIS_TYPE": 0, "CLASSIFICATION_TYPE": "U", "NORAD_CAT_ID": 39084, "ELEMENT_SET_NO": 999, "REV_AT_EPOCH": 67027, "BSTAR": 0.00018726, "MEAN_MOTION_DOT": 7.98e-06, "MEAN_MOTION_DDOT": 0}, "tle": {"line1": "1 39084U 13008A   25343.49758406  .00000798  00000+0  18726-3 0  9996", "line2": "2 39084  98.2076  51.6188 0001118  87.1914 272.9412 14.57109596670274"}}, "geometry": {"type": "Point", "coordinates": [50.01113725187073, 12.363418404942172]}}, {"type": "Feature", "properties": {"norad_id": 39086, "name": "SARAL", "group": "resource", "lat": -79.50101185285867, "lon": -66.59830023187024, "alt_km": 791.592547834819, "timestamp": "2025-12-09T16:56:36.237057+00:00", "meta": {"OBJECT_NAME": "SARAL", "OBJECT_ID": "2013-009A", "EPOCH": "2025-12-09T12:21:48.650688", "MEAN_MOTION": 14.32755536, "ECCENTRICITY": 0.0002801, "INCLINATION": 98.5504, "RA_OF_ASC_NODE": 167.4877, "ARG_OF_PERICENTER": 114.8527, "MEAN_ANOMALY": 245.2949, "EPHEMERIS_TYPE": 0, "CLASSIFICATION_TYPE": "U", "NORAD_CAT_ID": 39086, "ELEMENT_SET_NO": 999, "REV_AT_EPOCH": 66844, "BSTAR": 0.00011002, "MEAN_MOTION_DOT": 2.56e-06, "MEAN_MOTION_DDOT": 0}, "tle": {"line1": "1 39086U 13009A   25343.51514642  .00000256  00000+0  11002-3 0  9993", "line2": "2 39086  98.5504 167.4877 0002801 114.8527 245.2949 14.32755536668442"}}, "geometry": {"type": "Point", "coordinates": [-66.59830023187024, -79.50101185285867]}}, {"type": "Feature", "properties": {"norad_id": 39150, "name": "GAOFEN-1", "group": "resource", "lat": -73.62084648174883, "lon": 82.73931275053378, "alt_km": 656.0667241403917, "timestamp": "2025-12-09T16:56:36.237068+00:00", "meta": {"OBJECT_NAME": "GAOFEN-1", "OBJECT_ID": "2013-018A", "EPOCH": "2025-12-09T12:24:26.340192", "MEAN_MOTION": 14.76527265, "ECCENTRICITY": 0.0017976, "INCLINATION": 97.9327, "RA_OF_ASC_NODE": 54.2332, "ARG_OF_PERICENTER": 152.9116, "MEAN_ANOMALY": 207.3036, "EPHEMERIS_TYPE": 0, "CLASSIFICATION_TYPE": "U", "NORAD_CAT_ID": 39150, "ELEMENT_SET_NO": 999, "REV_AT_EPOCH": 68025, "BSTAR": 0.00026111, "MEAN_MOTION_DOT": 1.774e-05, "MEAN_MOTION_DDOT": 0}, "tle": {"line1": "1 39150U 13018A   25343.51697153  .00001774  00000+0  26111-3 0  9997", "line2": "2 39150  97.9327  54.2332 0017976 152.9116 207.3036 14.76527265680258"}}, "geometry": {"type": "Point", "coordinates": [82.73931275053378, -73.62084648174883]}}, {"type": "Feature", "properties": {"norad_id": 39160, "name": "VNREDSAT 1", "group": "resource", "lat": 65.33241560083579, "lon": -123.22772058146647, "alt_km": 670.2056640518222, "timestamp": "2025-12-09T16:56:36.237079+00:00", "meta": {"OBJECT_NAME": "VNREDSAT 1", "OBJECT_ID": "2013-021B", "EPOCH": "2025-12-09T11:30:35.394048", "MEAN_MOTION": 14.64916651, "ECCENTRICITY": 0.000134, "INCLINATION": 97.9373, "RA_OF_ASC_NODE": 38.8687, "ARG_OF_PERICENTER": 77.884, "MEAN_ANOMALY": 282.2514, "EPHEMERIS_TYPE": 0, "CLASSIFICATION_TYPE": "U", "NORAD_CAT_ID": 39160, "ELEMENT_SET_NO": 999, "REV_AT_EPOCH": 67251, "BSTAR": 0.00027596, "MEAN_MOTION_DOT": 1.43e-05, "MEAN_MOTION_DDOT": 0}, "tle": {"line1": "1 39160U 13021B   25343.47957632  .00001430  00000+0  27596-3 0  9995", "line2": "2 39160  97.9373  38.8687 0001340  77.8840 282.2514 14.64916651672519"}}, "geometry": {"type": "Point", "coordinates": [-123.22772058146647, 65.33241560083579]}}, {"type": "Feature", "properties": {"norad_id": 39227, "name": "ARIRANG-5 (KOMPSAT-5)", "group": "resource", "lat": 58.81713940272235, "lon": 0.8232916804817206, "alt_km": 545.9754059456727, "timestamp": "2025-12-09T16:56:36.237089+00:00", "meta": {"OBJECT_NAME": "ARIRANG-5 (KOMPSAT-5)", "OBJECT_ID": "2013-042A", "EPOCH": "2025-12-09T11:37:20.265312", "MEAN_MOTION": 15.04481993, "ECCENTRICITY": 0.0003883, "INCLINATION": 97.6143, "RA_OF_ASC_NODE": 167.8349, "ARG_OF_PERICENTER": 63.8692, "MEAN_ANOMALY": 296.2933, "EPHEMERIS_TYPE": 0, "CLASSIFICATION_TYPE": "U", "NORAD_CAT_ID": 39227, "ELEMENT_SET_NO": 999, "REV_AT_EPOCH": 67533, "BSTAR": 6.3178e-05, "MEAN_MOTION_DOT": 8.23e-06, "MEAN_MOTION_DDOT": 0}, "tle": {"line1": "1 39227U 13042A   25343.48426233  .00000823  00000+0  63178-4 0  9993", "line2": "2 39227  97.6143 167.8349 0003883  63.8692 296.2933 15.04481993675331"}}, "geometry": {"type": "Point", "coordinates": [0.8232916804817206, 58.81713940272235]}}, {"type": "Feature", "properties": {"norad_id": 39418, "name": "SKYSAT-A", "group": "resource", "lat": 55.299472957463905, "lon": 23.17197037615902, "alt_km": 540.1966240071006, "timestamp": "2025-12-09T16:56:36.237100+00:00", "meta": {"OBJECT_NAME": "SKYSAT-A", "OBJECT_ID": "2013-066C", "EPOCH": "2025-12-09T10:20:26.482848", "MEAN_MOTION": 15.11564532, "ECCENTRICITY": 0.0020713, "INCLINATION": 97.4109, "RA_OF_ASC_NODE": 33.7397, "ARG_OF_PERICENTER": 248.9983, "MEAN_ANOMALY": 110.9031, "EPHEMERIS_TYPE": 0, "CLASSIFICATION_TYPE": "U", "NORAD_CAT_ID": 39418, "ELEMENT_SET_NO": 999, "REV_AT_EPOCH": 65980, "BSTAR": 0.00036654, "MEAN_MOTION_DOT": 6.186e-05, "MEAN_MOTION_DDOT": 0}, "tle": {"line1": "1 39418U 13066C   25343.43086207  .00006186  00000+0  36654-3 0  9995", "line2": "2 39418  97.4109  33.7397 0020713 248.9983 110.9031 15.11564532659801"}}, "geometry": {"type": "Point", "coordinates": [23.17197037615902, 55.299472957463905]}}, {"type": "Feature", "properties": {"norad_id": 39419, "name": "DUBAISAT-2", "group": "resource", "lat": -52.83357076564319, "lon": 144.27468109866427, "alt_km": 549.5308557299904, "timestamp": "2025-12-09T16:56:36.237110+00:00", "meta": {"OBJECT_NAME": "DUBAISAT-2", "OBJECT_ID": "2013-066D", "EPOCH": "2025-12-09T12:43:35.282208", "MEAN_MOTION": 15.08306658, "ECCENTRICITY": 0.0010995, "INCLINATION": 97.4447, "RA_OF_ASC_NODE": 334.0365, "ARG_OF_PERICENTER": 332.7204, "MEAN_ANOMALY": 27.3446, "EPHEMERIS_TYPE": 0, "CLASSIFICATION_TYPE": "U", "NORAD_CAT_ID": 39419, "ELEMENT_SET_NO": 999, "REV_AT_EPOCH": 65778, "BSTAR": 0.00045677, "MEAN_MOTION_DOT": 7.036e-05, "MEAN_MOTION_DDOT": 0}, "tle": {"line1": "1 39419U 13066D   25343.53026947  .00007036  00000+0  45677-3 0  9992", "line2": "2 39419  97.4447 334.0365 0010995 332.7204  27.3446 15.08306658657783"}}, "geometry": {"type": "Point", "coordinates": [144.27468109866427, -52.83357076564319]}}]}